<?xml version="1.0" encoding="UTF-8" standalone="no" ?>
<gpx xmlns="http://www.topografix.com/GPX/1/1" creator="http://nakarte.me" xmlns:xsi="http://www.w3.org/2001/XMLSchema-instance" xsi:schemaLocation="http://www.topografix.com/GPX/1/1 http://www.topografix.com/GPX/1/1/gpx.xsd" version="1.1">
	<metadata>
		<time>2024-06-27T09:25:13.329Z</time>
	</metadata>
	<wpt lat="56.406687" lon="40.445890">
		<name>CP1</name>
	</wpt>
	<wpt lat="56.417523" lon="40.477347">
		<name>CP2</name>
	</wpt>
	<wpt lat="56.410185" lon="40.452478">
		<name>Брод</name>
	</wpt>
	<wpt lat="56.407031" lon="40.453851">
		<name>MP3</name>
	</wpt>
	<wpt lat="56.409112" lon="40.450246">
		<name>MP1</name>
	</wpt>
	<wpt lat="56.408211" lon="40.453765">
		<name>MP2</name>
	</wpt>
	<wpt lat="56.417438" lon="40.477669">
		<name>Брод</name>
	</wpt>
	<wpt lat="56.437887" lon="40.514941">
		<name>Понтон</name>
	</wpt>
	<wpt lat="56.432887" lon="40.426686">
		<name>Start/Finish</name>
	</wpt>
	<trk>
		<name>GRUT100 - T20</name>
		<trkseg>
			<trkpt lat="56.432887" lon="40.426643"><time>1970-01-01T00:00:01.000Z</time></trkpt>
			<trkpt lat="56.433531" lon="40.425870"><time>1970-01-01T00:00:01.000Z</time></trkpt>
			<trkpt lat="56.434196" lon="40.427480"><time>1970-01-01T00:00:01.000Z</time></trkpt>
			<trkpt lat="56.437264" lon="40.432887"><time>1970-01-01T00:00:01.000Z</time></trkpt>
			<trkpt lat="56.437307" lon="40.433188"><time>1970-01-01T00:00:01.000Z</time></trkpt>
			<trkpt lat="56.437200" lon="40.434282"><time>1970-01-01T00:00:01.000Z</time></trkpt>
			<trkpt lat="56.437672" lon="40.436707"><time>1970-01-01T00:00:01.000Z</time></trkpt>
			<trkpt lat="56.437737" lon="40.437222"><time>1970-01-01T00:00:01.000Z</time></trkpt>
			<trkpt lat="56.437651" lon="40.437672"><time>1970-01-01T00:00:01.000Z</time></trkpt>
			<trkpt lat="56.437393" lon="40.438466"><time>1970-01-01T00:00:01.000Z</time></trkpt>
			<trkpt lat="56.437028" lon="40.439389"><time>1970-01-01T00:00:01.000Z</time></trkpt>
			<trkpt lat="56.436578" lon="40.440311"><time>1970-01-01T00:00:01.000Z</time></trkpt>
			<trkpt lat="56.435913" lon="40.441191"><time>1970-01-01T00:00:01.000Z</time></trkpt>
			<trkpt lat="56.435526" lon="40.441449"><time>1970-01-01T00:00:01.000Z</time></trkpt>
			<trkpt lat="56.434904" lon="40.441771"><time>1970-01-01T00:00:01.000Z</time></trkpt>
			<trkpt lat="56.434711" lon="40.441771"><time>1970-01-01T00:00:01.000Z</time></trkpt>
			<trkpt lat="56.434346" lon="40.438144"><time>1970-01-01T00:00:01.000Z</time></trkpt>
			<trkpt lat="56.434153" lon="40.437071"><time>1970-01-01T00:00:01.000Z</time></trkpt>
			<trkpt lat="56.433702" lon="40.435913"><time>1970-01-01T00:00:01.000Z</time></trkpt>
			<trkpt lat="56.433466" lon="40.435505"><time>1970-01-01T00:00:01.000Z</time></trkpt>
			<trkpt lat="56.433209" lon="40.435247"><time>1970-01-01T00:00:01.000Z</time></trkpt>
			<trkpt lat="56.433080" lon="40.435441"><time>1970-01-01T00:00:01.000Z</time></trkpt>
			<trkpt lat="56.432436" lon="40.437887"><time>1970-01-01T00:00:01.000Z</time></trkpt>
			<trkpt lat="56.432501" lon="40.438423"><time>1970-01-01T00:00:01.000Z</time></trkpt>
			<trkpt lat="56.432501" lon="40.438831"><time>1970-01-01T00:00:01.000Z</time></trkpt>
			<trkpt lat="56.432179" lon="40.439432"><time>1970-01-01T00:00:01.000Z</time></trkpt>
			<trkpt lat="56.431750" lon="40.439990"><time>1970-01-01T00:00:01.000Z</time></trkpt>
			<trkpt lat="56.431685" lon="40.440269"><time>1970-01-01T00:00:01.000Z</time></trkpt>
			<trkpt lat="56.431836" lon="40.441620"><time>1970-01-01T00:00:01.000Z</time></trkpt>
			<trkpt lat="56.432115" lon="40.442758"><time>1970-01-01T00:00:01.000Z</time></trkpt>
			<trkpt lat="56.432158" lon="40.443037"><time>1970-01-01T00:00:01.000Z</time></trkpt>
			<trkpt lat="56.432136" lon="40.443144"><time>1970-01-01T00:00:01.000Z</time></trkpt>
			<trkpt lat="56.431986" lon="40.443230"><time>1970-01-01T00:00:01.000Z</time></trkpt>
			<trkpt lat="56.431857" lon="40.443380"><time>1970-01-01T00:00:01.000Z</time></trkpt>
			<trkpt lat="56.431428" lon="40.443616"><time>1970-01-01T00:00:01.000Z</time></trkpt>
			<trkpt lat="56.428424" lon="40.445118"><time>1970-01-01T00:00:01.000Z</time></trkpt>
			<trkpt lat="56.427179" lon="40.445676"><time>1970-01-01T00:00:01.000Z</time></trkpt>
			<trkpt lat="56.425591" lon="40.446620"><time>1970-01-01T00:00:01.000Z</time></trkpt>
			<trkpt lat="56.422523" lon="40.448122"><time>1970-01-01T00:00:01.000Z</time></trkpt>
			<trkpt lat="56.419927" lon="40.449452"><time>1970-01-01T00:00:01.000Z</time></trkpt>
			<trkpt lat="56.418983" lon="40.449195"><time>1970-01-01T00:00:01.000Z</time></trkpt>
			<trkpt lat="56.418897" lon="40.448616"><time>1970-01-01T00:00:01.000Z</time></trkpt>
			<trkpt lat="56.418639" lon="40.447865"><time>1970-01-01T00:00:01.000Z</time></trkpt>
			<trkpt lat="56.416901" lon="40.443766"><time>1970-01-01T00:00:01.000Z</time></trkpt>
			<trkpt lat="56.416708" lon="40.443680"><time>1970-01-01T00:00:01.000Z</time></trkpt>
			<trkpt lat="56.416408" lon="40.443723"><time>1970-01-01T00:00:01.000Z</time></trkpt>
			<trkpt lat="56.416172" lon="40.443702"><time>1970-01-01T00:00:01.000Z</time></trkpt>
			<trkpt lat="56.415957" lon="40.443530"><time>1970-01-01T00:00:01.000Z</time></trkpt>
			<trkpt lat="56.414884" lon="40.442050"><time>1970-01-01T00:00:01.000Z</time></trkpt>
			<trkpt lat="56.414734" lon="40.441620"><time>1970-01-01T00:00:01.000Z</time></trkpt>
			<trkpt lat="56.414627" lon="40.441084"><time>1970-01-01T00:00:01.000Z</time></trkpt>
			<trkpt lat="56.414584" lon="40.439453"><time>1970-01-01T00:00:01.000Z</time></trkpt>
			<trkpt lat="56.414391" lon="40.438852"><time>1970-01-01T00:00:01.000Z</time></trkpt>
			<trkpt lat="56.414305" lon="40.438788"><time>1970-01-01T00:00:01.000Z</time></trkpt>
			<trkpt lat="56.413682" lon="40.439346"><time>1970-01-01T00:00:01.000Z</time></trkpt>
			<trkpt lat="56.413489" lon="40.439861"><time>1970-01-01T00:00:01.000Z</time></trkpt>
			<trkpt lat="56.413039" lon="40.440719"><time>1970-01-01T00:00:01.000Z</time></trkpt>
			<trkpt lat="56.412931" lon="40.442328"><time>1970-01-01T00:00:01.000Z</time></trkpt>
			<trkpt lat="56.412953" lon="40.442972"><time>1970-01-01T00:00:01.000Z</time></trkpt>
			<trkpt lat="56.413232" lon="40.444582"><time>1970-01-01T00:00:01.000Z</time></trkpt>
			<trkpt lat="56.413489" lon="40.446470"><time>1970-01-01T00:00:01.000Z</time></trkpt>
			<trkpt lat="56.413554" lon="40.447414"><time>1970-01-01T00:00:01.000Z</time></trkpt>
			<trkpt lat="56.413511" lon="40.447478"><time>1970-01-01T00:00:01.000Z</time></trkpt>
			<trkpt lat="56.413361" lon="40.447500"><time>1970-01-01T00:00:01.000Z</time></trkpt>
			<trkpt lat="56.412824" lon="40.447435"><time>1970-01-01T00:00:01.000Z</time></trkpt>
			<trkpt lat="56.410013" lon="40.446706"><time>1970-01-01T00:00:01.000Z</time></trkpt>
			<trkpt lat="56.406752" lon="40.445697"><time>1970-01-01T00:00:01.000Z</time></trkpt>
			<trkpt lat="56.406644" lon="40.445890"><time>1970-01-01T00:00:01.000Z</time></trkpt>
			<trkpt lat="56.406644" lon="40.446191"><time>1970-01-01T00:00:01.000Z</time></trkpt>
			<trkpt lat="56.406387" lon="40.446405"><time>1970-01-01T00:00:01.000Z</time></trkpt>
			<trkpt lat="56.406280" lon="40.446556"><time>1970-01-01T00:00:01.000Z</time></trkpt>
			<trkpt lat="56.406151" lon="40.447264"><time>1970-01-01T00:00:01.000Z</time></trkpt>
			<trkpt lat="56.406151" lon="40.447714"><time>1970-01-01T00:00:01.000Z</time></trkpt>
			<trkpt lat="56.406301" lon="40.448251"><time>1970-01-01T00:00:01.000Z</time></trkpt>
			<trkpt lat="56.406623" lon="40.448380"><time>1970-01-01T00:00:01.000Z</time></trkpt>
			<trkpt lat="56.407095" lon="40.449109"><time>1970-01-01T00:00:01.000Z</time></trkpt>
			<trkpt lat="56.407460" lon="40.449216"><time>1970-01-01T00:00:01.000Z</time></trkpt>
			<trkpt lat="56.407867" lon="40.449281"><time>1970-01-01T00:00:01.000Z</time></trkpt>
			<trkpt lat="56.408361" lon="40.449173"><time>1970-01-01T00:00:01.000Z</time></trkpt>
			<trkpt lat="56.408490" lon="40.449195"><time>1970-01-01T00:00:01.000Z</time></trkpt>
			<trkpt lat="56.408683" lon="40.449281"><time>1970-01-01T00:00:01.000Z</time></trkpt>
			<trkpt lat="56.408919" lon="40.449538"><time>1970-01-01T00:00:01.000Z</time></trkpt>
			<trkpt lat="56.409048" lon="40.449946"><time>1970-01-01T00:00:01.000Z</time></trkpt>
			<trkpt lat="56.409198" lon="40.450676"><time>1970-01-01T00:00:01.000Z</time></trkpt>
			<trkpt lat="56.409391" lon="40.451319"><time>1970-01-01T00:00:01.000Z</time></trkpt>
			<trkpt lat="56.409369" lon="40.451856"><time>1970-01-01T00:00:01.000Z</time></trkpt>
			<trkpt lat="56.409412" lon="40.452242"><time>1970-01-01T00:00:01.000Z</time></trkpt>
			<trkpt lat="56.409369" lon="40.452499"><time>1970-01-01T00:00:01.000Z</time></trkpt>
			<trkpt lat="56.409412" lon="40.452907"><time>1970-01-01T00:00:01.000Z</time></trkpt>
			<trkpt lat="56.409348" lon="40.453100"><time>1970-01-01T00:00:01.000Z</time></trkpt>
			<trkpt lat="56.409241" lon="40.453208"><time>1970-01-01T00:00:01.000Z</time></trkpt>
			<trkpt lat="56.409112" lon="40.453422"><time>1970-01-01T00:00:01.000Z</time></trkpt>
			<trkpt lat="56.409069" lon="40.453615"><time>1970-01-01T00:00:01.000Z</time></trkpt>
			<trkpt lat="56.409112" lon="40.453787"><time>1970-01-01T00:00:01.000Z</time></trkpt>
			<trkpt lat="56.409391" lon="40.453937"><time>1970-01-01T00:00:01.000Z</time></trkpt>
			<trkpt lat="56.409498" lon="40.453744"><time>1970-01-01T00:00:01.000Z</time></trkpt>
			<trkpt lat="56.409477" lon="40.453379"><time>1970-01-01T00:00:01.000Z</time></trkpt>
			<trkpt lat="56.409627" lon="40.452950"><time>1970-01-01T00:00:01.000Z</time></trkpt>
			<trkpt lat="56.409670" lon="40.452392"><time>1970-01-01T00:00:01.000Z</time></trkpt>
			<trkpt lat="56.409799" lon="40.452220"><time>1970-01-01T00:00:01.000Z</time></trkpt>
			<trkpt lat="56.410056" lon="40.452371"><time>1970-01-01T00:00:01.000Z</time></trkpt>
			<trkpt lat="56.410228" lon="40.452542"><time>1970-01-01T00:00:01.000Z</time></trkpt>
			<trkpt lat="56.410571" lon="40.452285"><time>1970-01-01T00:00:01.000Z</time></trkpt>
			<trkpt lat="56.411837" lon="40.452092"><time>1970-01-01T00:00:01.000Z</time></trkpt>
			<trkpt lat="56.412631" lon="40.451705"><time>1970-01-01T00:00:01.000Z</time></trkpt>
			<trkpt lat="56.413253" lon="40.451491"><time>1970-01-01T00:00:01.000Z</time></trkpt>
			<trkpt lat="56.413854" lon="40.451148"><time>1970-01-01T00:00:01.000Z</time></trkpt>
			<trkpt lat="56.414090" lon="40.451062"><time>1970-01-01T00:00:01.000Z</time></trkpt>
			<trkpt lat="56.414412" lon="40.451019"><time>1970-01-01T00:00:01.000Z</time></trkpt>
			<trkpt lat="56.414906" lon="40.448465"><time>1970-01-01T00:00:01.000Z</time></trkpt>
			<trkpt lat="56.414863" lon="40.447865"><time>1970-01-01T00:00:01.000Z</time></trkpt>
			<trkpt lat="56.414777" lon="40.447693"><time>1970-01-01T00:00:01.000Z</time></trkpt>
			<trkpt lat="56.414777" lon="40.447478"><time>1970-01-01T00:00:01.000Z</time></trkpt>
			<trkpt lat="56.414863" lon="40.447242"><time>1970-01-01T00:00:01.000Z</time></trkpt>
			<trkpt lat="56.415013" lon="40.447199"><time>1970-01-01T00:00:01.000Z</time></trkpt>
			<trkpt lat="56.415378" lon="40.447435"><time>1970-01-01T00:00:01.000Z</time></trkpt>
			<trkpt lat="56.415657" lon="40.447500"><time>1970-01-01T00:00:01.000Z</time></trkpt>
			<trkpt lat="56.415957" lon="40.447671"><time>1970-01-01T00:00:01.000Z</time></trkpt>
			<trkpt lat="56.416300" lon="40.447607"><time>1970-01-01T00:00:01.000Z</time></trkpt>
			<trkpt lat="56.416644" lon="40.447478"><time>1970-01-01T00:00:01.000Z</time></trkpt>
			<trkpt lat="56.417953" lon="40.446341"><time>1970-01-01T00:00:01.000Z</time></trkpt>
			<trkpt lat="56.418468" lon="40.447457"><time>1970-01-01T00:00:01.000Z</time></trkpt>
			<trkpt lat="56.418897" lon="40.448616"><time>1970-01-01T00:00:01.000Z</time></trkpt>
			<trkpt lat="56.418983" lon="40.449216"><time>1970-01-01T00:00:01.000Z</time></trkpt>
			<trkpt lat="56.419948" lon="40.449538"><time>1970-01-01T00:00:01.000Z</time></trkpt>
			<trkpt lat="56.419905" lon="40.450697"><time>1970-01-01T00:00:01.000Z</time></trkpt>
			<trkpt lat="56.419948" lon="40.452650"><time>1970-01-01T00:00:01.000Z</time></trkpt>
			<trkpt lat="56.419798" lon="40.460868"><time>1970-01-01T00:00:01.000Z</time></trkpt>
			<trkpt lat="56.417738" lon="40.460911"><time>1970-01-01T00:00:01.000Z</time></trkpt>
			<trkpt lat="56.417438" lon="40.460932"><time>1970-01-01T00:00:01.000Z</time></trkpt>
			<trkpt lat="56.417330" lon="40.460975"><time>1970-01-01T00:00:01.000Z</time></trkpt>
			<trkpt lat="56.417438" lon="40.461297"><time>1970-01-01T00:00:01.000Z</time></trkpt>
			<trkpt lat="56.417802" lon="40.462027"><time>1970-01-01T00:00:01.000Z</time></trkpt>
			<trkpt lat="56.417974" lon="40.462112"><time>1970-01-01T00:00:01.000Z</time></trkpt>
			<trkpt lat="56.417974" lon="40.462348"><time>1970-01-01T00:00:01.000Z</time></trkpt>
			<trkpt lat="56.418060" lon="40.462670"><time>1970-01-01T00:00:01.000Z</time></trkpt>
			<trkpt lat="56.417995" lon="40.463100"><time>1970-01-01T00:00:01.000Z</time></trkpt>
			<trkpt lat="56.417867" lon="40.463421"><time>1970-01-01T00:00:01.000Z</time></trkpt>
			<trkpt lat="56.417910" lon="40.463679"><time>1970-01-01T00:00:01.000Z</time></trkpt>
			<trkpt lat="56.417867" lon="40.463893"><time>1970-01-01T00:00:01.000Z</time></trkpt>
			<trkpt lat="56.417974" lon="40.464473"><time>1970-01-01T00:00:01.000Z</time></trkpt>
			<trkpt lat="56.417910" lon="40.464902"><time>1970-01-01T00:00:01.000Z</time></trkpt>
			<trkpt lat="56.417931" lon="40.465245"><time>1970-01-01T00:00:01.000Z</time></trkpt>
			<trkpt lat="56.417802" lon="40.465696"><time>1970-01-01T00:00:01.000Z</time></trkpt>
			<trkpt lat="56.417824" lon="40.466554"><time>1970-01-01T00:00:01.000Z</time></trkpt>
			<trkpt lat="56.417759" lon="40.467348"><time>1970-01-01T00:00:01.000Z</time></trkpt>
			<trkpt lat="56.418081" lon="40.468485"><time>1970-01-01T00:00:01.000Z</time></trkpt>
			<trkpt lat="56.418253" lon="40.468786"><time>1970-01-01T00:00:01.000Z</time></trkpt>
			<trkpt lat="56.418489" lon="40.468807"><time>1970-01-01T00:00:01.000Z</time></trkpt>
			<trkpt lat="56.418682" lon="40.469108"><time>1970-01-01T00:00:01.000Z</time></trkpt>
			<trkpt lat="56.418832" lon="40.469494"><time>1970-01-01T00:00:01.000Z</time></trkpt>
			<trkpt lat="56.418854" lon="40.469880"><time>1970-01-01T00:00:01.000Z</time></trkpt>
			<trkpt lat="56.419090" lon="40.470223"><time>1970-01-01T00:00:01.000Z</time></trkpt>
			<trkpt lat="56.419047" lon="40.470653"><time>1970-01-01T00:00:01.000Z</time></trkpt>
			<trkpt lat="56.419090" lon="40.471039"><time>1970-01-01T00:00:01.000Z</time></trkpt>
			<trkpt lat="56.418897" lon="40.471704"><time>1970-01-01T00:00:01.000Z</time></trkpt>
			<trkpt lat="56.418811" lon="40.472219"><time>1970-01-01T00:00:01.000Z</time></trkpt>
			<trkpt lat="56.418725" lon="40.473185"><time>1970-01-01T00:00:01.000Z</time></trkpt>
			<trkpt lat="56.418811" lon="40.473721"><time>1970-01-01T00:00:01.000Z</time></trkpt>
			<trkpt lat="56.418746" lon="40.474472"><time>1970-01-01T00:00:01.000Z</time></trkpt>
			<trkpt lat="56.418532" lon="40.475116"><time>1970-01-01T00:00:01.000Z</time></trkpt>
			<trkpt lat="56.418317" lon="40.475566"><time>1970-01-01T00:00:01.000Z</time></trkpt>
			<trkpt lat="56.417867" lon="40.475760"><time>1970-01-01T00:00:01.000Z</time></trkpt>
			<trkpt lat="56.417674" lon="40.476038"><time>1970-01-01T00:00:01.000Z</time></trkpt>
			<trkpt lat="56.417588" lon="40.476446"><time>1970-01-01T00:00:01.000Z</time></trkpt>
			<trkpt lat="56.417631" lon="40.476875"><time>1970-01-01T00:00:01.000Z</time></trkpt>
			<trkpt lat="56.417523" lon="40.477304"><time>1970-01-01T00:00:01.000Z</time></trkpt>
			<trkpt lat="56.417566" lon="40.477669"><time>1970-01-01T00:00:01.000Z</time></trkpt>
			<trkpt lat="56.417416" lon="40.477626"><time>1970-01-01T00:00:01.000Z</time></trkpt>
			<trkpt lat="56.417395" lon="40.477369"><time>1970-01-01T00:00:01.000Z</time></trkpt>
			<trkpt lat="56.417180" lon="40.477133"><time>1970-01-01T00:00:01.000Z</time></trkpt>
			<trkpt lat="56.416858" lon="40.477240"><time>1970-01-01T00:00:01.000Z</time></trkpt>
			<trkpt lat="56.416772" lon="40.477219"><time>1970-01-01T00:00:01.000Z</time></trkpt>
			<trkpt lat="56.416751" lon="40.477133"><time>1970-01-01T00:00:01.000Z</time></trkpt>
			<trkpt lat="56.416837" lon="40.476532"><time>1970-01-01T00:00:01.000Z</time></trkpt>
			<trkpt lat="56.417008" lon="40.473163"><time>1970-01-01T00:00:01.000Z</time></trkpt>
			<trkpt lat="56.416966" lon="40.472112"><time>1970-01-01T00:00:01.000Z</time></trkpt>
			<trkpt lat="56.416987" lon="40.470974"><time>1970-01-01T00:00:01.000Z</time></trkpt>
			<trkpt lat="56.416944" lon="40.469945"><time>1970-01-01T00:00:01.000Z</time></trkpt>
			<trkpt lat="56.416858" lon="40.469430"><time>1970-01-01T00:00:01.000Z</time></trkpt>
			<trkpt lat="56.416858" lon="40.469151"><time>1970-01-01T00:00:01.000Z</time></trkpt>
			<trkpt lat="56.416923" lon="40.469022"><time>1970-01-01T00:00:01.000Z</time></trkpt>
			<trkpt lat="56.417137" lon="40.468872"><time>1970-01-01T00:00:01.000Z</time></trkpt>
			<trkpt lat="56.417244" lon="40.468593"><time>1970-01-01T00:00:01.000Z</time></trkpt>
			<trkpt lat="56.417266" lon="40.467584"><time>1970-01-01T00:00:01.000Z</time></trkpt>
			<trkpt lat="56.417159" lon="40.467134"><time>1970-01-01T00:00:01.000Z</time></trkpt>
			<trkpt lat="56.416858" lon="40.466704"><time>1970-01-01T00:00:01.000Z</time></trkpt>
			<trkpt lat="56.416708" lon="40.466340"><time>1970-01-01T00:00:01.000Z</time></trkpt>
			<trkpt lat="56.416408" lon="40.464408"><time>1970-01-01T00:00:01.000Z</time></trkpt>
			<trkpt lat="56.416172" lon="40.463185"><time>1970-01-01T00:00:01.000Z</time></trkpt>
			<trkpt lat="56.416064" lon="40.462306"><time>1970-01-01T00:00:01.000Z</time></trkpt>
			<trkpt lat="56.415936" lon="40.462391"><time>1970-01-01T00:00:01.000Z</time></trkpt>
			<trkpt lat="56.415871" lon="40.462563"><time>1970-01-01T00:00:01.000Z</time></trkpt>
			<trkpt lat="56.415571" lon="40.462885"><time>1970-01-01T00:00:01.000Z</time></trkpt>
			<trkpt lat="56.415442" lon="40.462971"><time>1970-01-01T00:00:01.000Z</time></trkpt>
			<trkpt lat="56.415313" lon="40.462971"><time>1970-01-01T00:00:01.000Z</time></trkpt>
			<trkpt lat="56.415206" lon="40.463164"><time>1970-01-01T00:00:01.000Z</time></trkpt>
			<trkpt lat="56.414927" lon="40.463464"><time>1970-01-01T00:00:01.000Z</time></trkpt>
			<trkpt lat="56.414991" lon="40.463786"><time>1970-01-01T00:00:01.000Z</time></trkpt>
			<trkpt lat="56.414970" lon="40.464172"><time>1970-01-01T00:00:01.000Z</time></trkpt>
			<trkpt lat="56.414863" lon="40.464516"><time>1970-01-01T00:00:01.000Z</time></trkpt>
			<trkpt lat="56.414627" lon="40.464838"><time>1970-01-01T00:00:01.000Z</time></trkpt>
			<trkpt lat="56.413790" lon="40.465224"><time>1970-01-01T00:00:01.000Z</time></trkpt>
			<trkpt lat="56.413339" lon="40.465202"><time>1970-01-01T00:00:01.000Z</time></trkpt>
			<trkpt lat="56.412502" lon="40.465288"><time>1970-01-01T00:00:01.000Z</time></trkpt>
			<trkpt lat="56.412073" lon="40.465567"><time>1970-01-01T00:00:01.000Z</time></trkpt>
			<trkpt lat="56.411687" lon="40.465696"><time>1970-01-01T00:00:01.000Z</time></trkpt>
			<trkpt lat="56.411279" lon="40.465610"><time>1970-01-01T00:00:01.000Z</time></trkpt>
			<trkpt lat="56.410743" lon="40.465417"><time>1970-01-01T00:00:01.000Z</time></trkpt>
			<trkpt lat="56.410485" lon="40.465224"><time>1970-01-01T00:00:01.000Z</time></trkpt>
			<trkpt lat="56.410378" lon="40.465052"><time>1970-01-01T00:00:01.000Z</time></trkpt>
			<trkpt lat="56.410378" lon="40.464494"><time>1970-01-01T00:00:01.000Z</time></trkpt>
			<trkpt lat="56.410678" lon="40.464301"><time>1970-01-01T00:00:01.000Z</time></trkpt>
			<trkpt lat="56.410657" lon="40.464108"><time>1970-01-01T00:00:01.000Z</time></trkpt>
			<trkpt lat="56.409606" lon="40.460975"><time>1970-01-01T00:00:01.000Z</time></trkpt>
			<trkpt lat="56.409369" lon="40.459666"><time>1970-01-01T00:00:01.000Z</time></trkpt>
			<trkpt lat="56.409005" lon="40.458207"><time>1970-01-01T00:00:01.000Z</time></trkpt>
			<trkpt lat="56.408855" lon="40.457156"><time>1970-01-01T00:00:01.000Z</time></trkpt>
			<trkpt lat="56.408704" lon="40.456576"><time>1970-01-01T00:00:01.000Z</time></trkpt>
			<trkpt lat="56.408576" lon="40.455632"><time>1970-01-01T00:00:01.000Z</time></trkpt>
			<trkpt lat="56.408597" lon="40.455267"><time>1970-01-01T00:00:01.000Z</time></trkpt>
			<trkpt lat="56.408511" lon="40.454860"><time>1970-01-01T00:00:01.000Z</time></trkpt>
			<trkpt lat="56.408425" lon="40.453830"><time>1970-01-01T00:00:01.000Z</time></trkpt>
			<trkpt lat="56.408318" lon="40.453744"><time>1970-01-01T00:00:01.000Z</time></trkpt>
			<trkpt lat="56.407138" lon="40.453894"><time>1970-01-01T00:00:01.000Z</time></trkpt>
			<trkpt lat="56.407052" lon="40.454044"><time>1970-01-01T00:00:01.000Z</time></trkpt>
			<trkpt lat="56.407202" lon="40.457006"><time>1970-01-01T00:00:01.000Z</time></trkpt>
			<trkpt lat="56.407031" lon="40.457091"><time>1970-01-01T00:00:01.000Z</time></trkpt>
			<trkpt lat="56.406301" lon="40.457263"><time>1970-01-01T00:00:01.000Z</time></trkpt>
			<trkpt lat="56.406044" lon="40.457220"><time>1970-01-01T00:00:01.000Z</time></trkpt>
			<trkpt lat="56.405765" lon="40.457027"><time>1970-01-01T00:00:01.000Z</time></trkpt>
			<trkpt lat="56.405207" lon="40.456426"><time>1970-01-01T00:00:01.000Z</time></trkpt>
			<trkpt lat="56.403640" lon="40.455503"><time>1970-01-01T00:00:01.000Z</time></trkpt>
			<trkpt lat="56.402567" lon="40.453980"><time>1970-01-01T00:00:01.000Z</time></trkpt>
			<trkpt lat="56.401065" lon="40.452628"><time>1970-01-01T00:00:01.000Z</time></trkpt>
			<trkpt lat="56.400658" lon="40.452607"><time>1970-01-01T00:00:01.000Z</time></trkpt>
			<trkpt lat="56.400250" lon="40.452435"><time>1970-01-01T00:00:01.000Z</time></trkpt>
			<trkpt lat="56.400164" lon="40.452328"><time>1970-01-01T00:00:01.000Z</time></trkpt>
			<trkpt lat="56.400164" lon="40.452156"><time>1970-01-01T00:00:01.000Z</time></trkpt>
			<trkpt lat="56.400529" lon="40.451641"><time>1970-01-01T00:00:01.000Z</time></trkpt>
			<trkpt lat="56.400722" lon="40.451276"><time>1970-01-01T00:00:01.000Z</time></trkpt>
			<trkpt lat="56.401301" lon="40.451126"><time>1970-01-01T00:00:01.000Z</time></trkpt>
			<trkpt lat="56.402074" lon="40.450783"><time>1970-01-01T00:00:01.000Z</time></trkpt>
			<trkpt lat="56.402546" lon="40.450504"><time>1970-01-01T00:00:01.000Z</time></trkpt>
			<trkpt lat="56.402782" lon="40.450182"><time>1970-01-01T00:00:01.000Z</time></trkpt>
			<trkpt lat="56.403404" lon="40.450053"><time>1970-01-01T00:00:01.000Z</time></trkpt>
			<trkpt lat="56.405550" lon="40.449924"><time>1970-01-01T00:00:01.000Z</time></trkpt>
			<trkpt lat="56.405893" lon="40.449667"><time>1970-01-01T00:00:01.000Z</time></trkpt>
			<trkpt lat="56.406451" lon="40.449860"><time>1970-01-01T00:00:01.000Z</time></trkpt>
			<trkpt lat="56.406752" lon="40.449839"><time>1970-01-01T00:00:01.000Z</time></trkpt>
			<trkpt lat="56.407074" lon="40.450289"><time>1970-01-01T00:00:01.000Z</time></trkpt>
			<trkpt lat="56.407589" lon="40.450311"><time>1970-01-01T00:00:01.000Z</time></trkpt>
			<trkpt lat="56.408340" lon="40.450633"><time>1970-01-01T00:00:01.000Z</time></trkpt>
			<trkpt lat="56.409048" lon="40.450504"><time>1970-01-01T00:00:01.000Z</time></trkpt>
			<trkpt lat="56.409133" lon="40.450547"><time>1970-01-01T00:00:01.000Z</time></trkpt>
			<trkpt lat="56.409412" lon="40.451341"><time>1970-01-01T00:00:01.000Z</time></trkpt>
			<trkpt lat="56.409369" lon="40.451834"><time>1970-01-01T00:00:01.000Z</time></trkpt>
			<trkpt lat="56.409412" lon="40.452220"><time>1970-01-01T00:00:01.000Z</time></trkpt>
			<trkpt lat="56.409369" lon="40.452499"><time>1970-01-01T00:00:01.000Z</time></trkpt>
			<trkpt lat="56.409412" lon="40.452907"><time>1970-01-01T00:00:01.000Z</time></trkpt>
			<trkpt lat="56.409348" lon="40.453100"><time>1970-01-01T00:00:01.000Z</time></trkpt>
			<trkpt lat="56.409112" lon="40.453401"><time>1970-01-01T00:00:01.000Z</time></trkpt>
			<trkpt lat="56.409069" lon="40.453594"><time>1970-01-01T00:00:01.000Z</time></trkpt>
			<trkpt lat="56.409112" lon="40.453787"><time>1970-01-01T00:00:01.000Z</time></trkpt>
			<trkpt lat="56.409391" lon="40.453937"><time>1970-01-01T00:00:01.000Z</time></trkpt>
			<trkpt lat="56.409498" lon="40.453765"><time>1970-01-01T00:00:01.000Z</time></trkpt>
			<trkpt lat="56.409498" lon="40.453358"><time>1970-01-01T00:00:01.000Z</time></trkpt>
			<trkpt lat="56.409627" lon="40.452929"><time>1970-01-01T00:00:01.000Z</time></trkpt>
			<trkpt lat="56.409670" lon="40.452414"><time>1970-01-01T00:00:01.000Z</time></trkpt>
			<trkpt lat="56.409799" lon="40.452220"><time>1970-01-01T00:00:01.000Z</time></trkpt>
			<trkpt lat="56.410206" lon="40.452521"><time>1970-01-01T00:00:01.000Z</time></trkpt>
			<trkpt lat="56.410571" lon="40.452306"><time>1970-01-01T00:00:01.000Z</time></trkpt>
			<trkpt lat="56.411837" lon="40.452092"><time>1970-01-01T00:00:01.000Z</time></trkpt>
			<trkpt lat="56.413854" lon="40.451148"><time>1970-01-01T00:00:01.000Z</time></trkpt>
			<trkpt lat="56.414090" lon="40.451062"><time>1970-01-01T00:00:01.000Z</time></trkpt>
			<trkpt lat="56.414391" lon="40.451040"><time>1970-01-01T00:00:01.000Z</time></trkpt>
			<trkpt lat="56.414948" lon="40.448144"><time>1970-01-01T00:00:01.000Z</time></trkpt>
			<trkpt lat="56.414820" lon="40.447521"><time>1970-01-01T00:00:01.000Z</time></trkpt>
			<trkpt lat="56.414906" lon="40.447285"><time>1970-01-01T00:00:01.000Z</time></trkpt>
			<trkpt lat="56.415056" lon="40.447221"><time>1970-01-01T00:00:01.000Z</time></trkpt>
			<trkpt lat="56.415421" lon="40.447435"><time>1970-01-01T00:00:01.000Z</time></trkpt>
			<trkpt lat="56.415807" lon="40.447607"><time>1970-01-01T00:00:01.000Z</time></trkpt>
			<trkpt lat="56.416107" lon="40.447650"><time>1970-01-01T00:00:01.000Z</time></trkpt>
			<trkpt lat="56.416451" lon="40.447543"><time>1970-01-01T00:00:01.000Z</time></trkpt>
			<trkpt lat="56.416880" lon="40.447285"><time>1970-01-01T00:00:01.000Z</time></trkpt>
			<trkpt lat="56.417974" lon="40.446320"><time>1970-01-01T00:00:01.000Z</time></trkpt>
			<trkpt lat="56.418489" lon="40.447435"><time>1970-01-01T00:00:01.000Z</time></trkpt>
			<trkpt lat="56.418875" lon="40.448594"><time>1970-01-01T00:00:01.000Z</time></trkpt>
			<trkpt lat="56.418961" lon="40.449216"><time>1970-01-01T00:00:01.000Z</time></trkpt>
			<trkpt lat="56.419927" lon="40.449452"><time>1970-01-01T00:00:01.000Z</time></trkpt>
			<trkpt lat="56.422523" lon="40.448122"><time>1970-01-01T00:00:01.000Z</time></trkpt>
			<trkpt lat="56.425034" lon="40.446899"><time>1970-01-01T00:00:01.000Z</time></trkpt>
			<trkpt lat="56.425978" lon="40.446405"><time>1970-01-01T00:00:01.000Z</time></trkpt>
			<trkpt lat="56.427179" lon="40.445697"><time>1970-01-01T00:00:01.000Z</time></trkpt>
			<trkpt lat="56.428402" lon="40.445139"><time>1970-01-01T00:00:01.000Z</time></trkpt>
			<trkpt lat="56.432007" lon="40.443358"><time>1970-01-01T00:00:01.000Z</time></trkpt>
			<trkpt lat="56.432544" lon="40.443015"><time>1970-01-01T00:00:01.000Z</time></trkpt>
			<trkpt lat="56.435205" lon="40.441620"><time>1970-01-01T00:00:01.000Z</time></trkpt>
			<trkpt lat="56.435913" lon="40.441213"><time>1970-01-01T00:00:01.000Z</time></trkpt>
			<trkpt lat="56.436578" lon="40.440311"><time>1970-01-01T00:00:01.000Z</time></trkpt>
			<trkpt lat="56.437028" lon="40.439389"><time>1970-01-01T00:00:01.000Z</time></trkpt>
			<trkpt lat="56.437651" lon="40.437672"><time>1970-01-01T00:00:01.000Z</time></trkpt>
			<trkpt lat="56.437715" lon="40.437222"><time>1970-01-01T00:00:01.000Z</time></trkpt>
			<trkpt lat="56.437672" lon="40.436707"><time>1970-01-01T00:00:01.000Z</time></trkpt>
			<trkpt lat="56.437200" lon="40.434282"><time>1970-01-01T00:00:01.000Z</time></trkpt>
			<trkpt lat="56.437286" lon="40.433188"><time>1970-01-01T00:00:01.000Z</time></trkpt>
			<trkpt lat="56.437264" lon="40.432909"><time>1970-01-01T00:00:01.000Z</time></trkpt>
			<trkpt lat="56.436471" lon="40.431407"><time>1970-01-01T00:00:01.000Z</time></trkpt>
			<trkpt lat="56.435183" lon="40.429239"><time>1970-01-01T00:00:01.000Z</time></trkpt>
			<trkpt lat="56.434175" lon="40.427415"><time>1970-01-01T00:00:01.000Z</time></trkpt>
			<trkpt lat="56.433552" lon="40.425828"><time>1970-01-01T00:00:01.000Z</time></trkpt>
			<trkpt lat="56.432909" lon="40.426664"><time>1970-01-01T00:00:01.000Z</time></trkpt>
		</trkseg>
	</trk>
</gpx>